satname,norad_id,inclination_deg,eccentricity,mean_motion_rev_per_day,perigee_km,apogee_km,l1,l2
STARLINK-1582,46043,53.1614,0.0001209,15.30206141,474.36816551318043,476.02530160995593,1 46043U 20055S   26081.23966866  .00002764  00000+0  10538-3 0  9990,2 46043  53.1614  68.4002 0001209  86.6426 273.4713 15.30206141310805
STARLINK-1591,46045,53.1567,4.55e-05,15.29920502,475.73786161770386,476.36159260987097,1 46045U 20055U   26081.25002315  .00072944  00000+0  24721-2 0  9999,2 46045  53.1567  68.3627 0000455 161.5326 110.9679 15.29920502  5821
STARLINK-1524,46047,53.1618,0.0001527,15.30208255,474.1439184908277,476.23692468537956,1 46047U 20055W   26081.19486289  .00004035  00000+0  14827-3 0  9993,2 46047  53.1618  55.7523 0001527  96.1346 263.9829 15.30208255310989
STARLINK-1527,46048,53.1607,0.0001159,15.30207631,474.3979838594096,475.9865855876069,1 46048U 20055X   26081.20119368  .00003817  00000+0  14091-3 0  9997,2 46048  53.1607  55.8206 0001159  88.4746 271.6388 15.30207631310967
STARLINK-1540,46051,53.1607,0.0001482,15.30200299,474.1985100149841,476.22984330374584,1 46051U 20055AA  26081.22436011  .00001433  00000+0  60499-4 0  9996,2 46051  53.1607  55.6233 0001482 104.1761 255.9404 15.30200299311004
STARLINK-1541,46052,53.1597,0.0001349,15.30201212,474.28693390218996,476.1359673141633,1 46052U 20055AB  26081.21383893  .00002150  00000+0  84690-4 0  9991,2 46052  53.1597  55.7115 0001349  83.8038 276.3116 15.30201212310962
STARLINK-1543,46053,53.1593,0.0001433,15.30206281,474.2142328855125,476.17839821374855,1 46053U 20055AC  26081.22015960  .00003791  00000+0  14004-3 0  9993,2 46053  53.1593  55.7079 0001433  92.9805 267.1360 15.30206281310998
STARLINK-1548,46054,53.1612,0.0001582,15.30203265,474.12112198003706,476.2895194903176,1 46054U 20055AD  26081.22753158 -.00000535  00000+0 -59242-5 0  9992,2 46054  53.1612  55.6779 0001582  95.0516 265.0666 15.30203265310990
STARLINK-1554,46055,53.1618,0.0001245,15.30206175,474.3433920071875,476.0498720815676,1 46055U 20055AE  26081.22544209  .00002300  00000+0  89724-4 0  9995,2 46055  53.1618  55.8102 0001245 109.7513 250.3622 15.30206175310997
STARLINK-1564,46058,53.1597,0.0001544,15.30204613,474.14314043454306,476.25945130030686,1 46058U 20055AH  26081.22338848  .00002935  00000+0  11118-3 0  9993,2 46058  53.1597  56.1522 0001544  96.4608 263.6568 15.30204613310985
STARLINK-1570,46059,53.1619,0.0001401,15.30214775,474.210805843104,476.13110273189614,1 46059U 20055AJ  26081.18751226  .00011023  00000+0  38356-3 0  9999,2 46059  53.1619  55.8582 0001401  97.7216 262.3944 15.30214775310944
STARLINK-1572,46060,53.1608,0.0001089,15.30215,474.4239573258883,475.91660765201414,1 46060U 20055AK  26081.20438736  .00008211  00000+0  28892-3 0  9991,2 46060  53.1608  55.9871 0001089  89.1745 270.9381 15.30215000310953
STARLINK-1573,46061,53.1621,0.0001253,15.30182504,474.40857825938383,476.12604137942526,1 46061U 20055AL  26081.23701355 -.00002132  00000+0 -59909-4 0  9997,2 46061  53.1621  55.5801 0001253  97.9405 262.1738 15.30182504310996
STARLINK-1577,46063,53.1618,0.000138,15.30219815,474.21015161840296,476.10166046047016,1 46063U 20055AN  26081.19803131  .00013422  00000+0  46418-3 0  9991,2 46063  53.1618  55.7334 0001380  90.5499 269.5660 15.30219815310980
STARLINK-1583,46064,53.1603,0.0001746,15.30209213,473.9909707316101,476.3841516683815,1 46064U 20055AP  26081.10321636  .00004132  00000+0  15153-3 0  9998,2 46064  53.1603  56.2064 0001746  89.0238 271.0962 15.30209213310963
STARLINK-1525,46066,53.055,0.0001742,15.28181548,480.0535308699409,482.4433407557781,1 46066U 20055AR  26081.25002315  .00935512  00000+0  31096-1 0  9993,2 46066  53.0550  38.8074 0001742  74.9484 327.2712 15.28181548  5835
STARLINK-1536,46070,53.0563,0.0001425,15.06405858,546.2067444590857,548.1804636812449,1 46070U 20055AV  26081.15696564  .00002383  00000+0  17877-3 0  9996,2 46070  53.0563  40.6507 0001425  90.4877 269.6276 15.06405858311195
STARLINK-1542,46073,53.0566,0.0001438,15.06400952,546.2127754938656,548.2045048999871,1 46073U 20055AY  26081.08324845  .00001010  00000+0  86656-4 0  9999,2 46073  53.0566  40.9818 0001438  93.1809 266.9344 15.06400952311172
STARLINK-1549,46074,53.056,0.0001419,15.06399958,546.228979683593,548.1943936408688,1 46074U 20055AZ  26081.20119681  .00001219  00000+0  10074-3 0  9995,2 46074  53.0560  40.4519 0001419  86.7563 273.3588 15.06399958311180
STARLINK-1551,46075,53.0562,0.0001361,15.06410667,546.2363298232549,548.1214008017932,1 46075U 20055BA  26081.16065257  .00001241  00000+0  10214-3 0  9991,2 46075  53.0562  40.6336 0001361  93.4343 266.6801 15.06410667311183
STARLINK-1552,46076,53.0576,0.0001484,15.06401306,546.179834107269,548.2352763712652,1 46076U 20055BB  26081.18645899 -.00002167  00000+0 -12661-3 0  9998,2 46076  53.0576  40.5174 0001484  97.4165 262.6993 15.06401306311177
STARLINK-1559,46077,53.0263,0.0004331,15.30752714,470.59778938053114,476.53273387955505,1 46077U 20055BC  26081.10040502  .00028425  00000+0  95157-3 0  9995,2 46077  53.0263  16.1148 0004331  82.9923 277.1569 15.30752714311489
STARLINK-1566,46079,53.0553,0.0001566,15.0641749,546.0734529361216,548.2424553157525,1 46079U 20055BE  26081.20488432  .00005613  00000+0  39520-3 0  9992,2 46079  53.0553  40.4354 0001566  92.5508 267.5661 15.06417490311191
STARLINK-1568,46080,53.0622,0.0006012,15.47459259,420.07205591592447,428.2511397499575,1 46080U 20055BF  26080.96219758  .00046115  00000+0  88717-3 0  9993,2 46080  53.0622 334.3639 0006012 155.1673 204.9624 15.47459259312099
STARLINK-1578,46082,53.0558,0.0001252,15.0640544,546.3278336199328,548.0619367239797,1 46082U 20055BH  26081.15327792  .00001775  00000+0  13800-3 0  9999,2 46082  53.0558  40.6676 0001252  89.0293 271.0840 15.06405440311183
STARLINK-1579,46083,53.0564,0.0001585,15.06398886,546.1173039023433,548.3126404775267,1 46083U 20055BJ  26081.18919356  .00001883  00000+0  14530-3 0  9997,2 46083  53.0564  40.4965 0001585  96.3744 263.7426 15.06398886311184
STARLINK-1585,46117,53.0381,0.0005364,15.91568431,294.3122471702454,301.47429244369505,1 46117U 20057A   26081.25002315  .00465341  94349-4  14091-2 0  9991,2 46117  53.0381 183.2904 0005364 354.7894 129.4724 15.91568431  5991
STARLINK-1593,46119,53.0421,0.0002422,15.78915468,331.88673248700616,335.1378554049934,1 46119U 20057C   26081.25002315  .00252505  00000+0  13617-2 0  9998,2 46119  53.0421 207.6433 0002422 328.0246 193.1270 15.78915468  5976
